{
    "type": "FeatureCollection",
    "features": [
    {
        "type": "Feature",
        "geometry": {
            "type": "Point",
            "coordinates": [
                  121.4135,
                  25.1713
            ]
        },
        "properties": {
            "Name":"臺北港-A"
        }
    },
     {
         "type": "Feature",
         "geometry": {
             "type": "Point",
             "coordinates": [
                   121.38,
                   25.153
             ]
         },
         "properties": {
             "Name":"臺北港-B"
         }
     },
     {
         "type": "Feature",
         "geometry": {
             "type": "Point",
             "coordinates": [
                   121.34,
                   25.134
             ]
         },
         "properties": {
             "Name":"臺北港-C"
         }
     },
     {
         "type": "Feature",
         "geometry": {
             "type": "Point",
             "coordinates": [
                   121.31,
                   25.13
             ]
         },
         "properties": {
             "Name":"臺北港-D"
         }
     },
     {
         "type": "Feature",
         "geometry": {
             "type": "Point",
             "coordinates": [
                   121.288,
                   25.125
             ]
         },
         "properties": {
             "Name":"臺北港-E"
         }
     },
          {
              "type": "Feature",
              "geometry": {
                  "type": "Point",
                  "coordinates": [
                   121.8347,
                   24.8624
                  ]
              },
              "properties": {
                  "Name":"烏石港"
              }
          },
          {
              "type": "Feature",
              "geometry": {
                  "type": "Point",
                  "coordinates": [
                    121.8439,
                    24.8763
                  ]
              },
              "properties": {
                  "Name":"烏石港-A"
              }
          },
          {
              "type": "Feature",
              "geometry": {
                  "type": "Point",
                  "coordinates": [
                    121.8399,
                    24.8643
                  ]
              },
              "properties": {
                  "Name":"烏石港-B"
              }
          },
          {
              "type": "Feature",
              "geometry": {
                  "type": "Point",
                  "coordinates": [
                  121.8292,
                  24.8503
                  ]
              },
              "properties": {
                  "Name":"烏石港-C"
              }
          },
          {
              "type": "Feature",
              "geometry": {
                  "type": "Point",
                  "coordinates": [
                120.929,
                24.8499
                  ]
              },
              "properties": {
                  "Name":"新竹新豐及頭前溪"
              }
          },
          {
              "type": "Feature",
              "geometry": {
                  "type": "Point",
                  "coordinates": [
                  120.9415,
                   24.8614
                  ]
              },
              "properties": {
                  "Name":"新竹新豐及頭前溪-A"
              }
          },
          {
              "type": "Feature",
              "geometry": {
                  "type": "Point",
                  "coordinates": [
                  120.9187,
                  24.851
                  ]
              },
              "properties": {
                  "Name":"新竹新豐及頭前溪-B"
              }
          },
          {
              "type": "Feature",
              "geometry": {
                  "type": "Point",
                  "coordinates": [
                   120.9125,
                   24.8328
                  ]
              },
              "properties": {
                  "Name":"新竹新豐及頭前溪-C"
              }
          },
          {
              "type": "Feature",
              "geometry": {
                  "type": "Point",
                  "coordinates": [
                  121.31,
                  25.13
                  ]
              },
              "properties": {
                  "Name":"新竹新豐及頭前溪-D"
              }
          },
          {
              "type": "Feature",
              "geometry": {
                  "type": "Point",
                  "coordinates": [
                120.1567,
                22.9546
                  ]
              },
              "properties": {
                  "Name":"台南黃金"
              }
          },
          {
              "type": "Feature",
              "geometry": {
                  "type": "Point",
                  "coordinates": [
                  120.142,
                  22.9914
                  ]
              },
              "properties": {
                  "Name":"台南黃金-A"
              }
          },
          {
              "type": "Feature",
              "geometry": {
                  "type": "Point",
                  "coordinates": [
                  120.1551,
                  22.974
                  ]
              },
              "properties": {
                  "Name":"台南黃金-B"
              }
          },
          {
              "type": "Feature",
              "geometry": {
                  "type": "Point",
                  "coordinates": [
                   120.1686,
                   22.9412
                  ]
              },
              "properties": {
                  "Name":"台南黃金-C"
              }
          },
          {
              "type": "Feature",
              "geometry": {
                  "type": "Point",
                  "coordinates": [
                120.9145,
                22.3278
                  ]
              },
              "properties": {
                  "Name":"臺東縣南迴公段"
              }
          },
          {
              "type": "Feature",
              "geometry": {
                  "type": "Point",
                  "coordinates": [
                  120.9306,
                   22.4006
                  ]
              },
              "properties": {
                  "Name":"臺東縣南迴公段-A"
              }
          },
          {
              "type": "Feature",
              "geometry": {
                  "type": "Point",
                  "coordinates": [
                    120.8965,
                    22.3362
                  ]
              },
              "properties": {
                  "Name":"臺東縣南迴公段-B"
              }
          },
          {
              "type": "Feature",
              "geometry": {
                  "type": "Point",
                  "coordinates": [
                    120.8928,
                    22.3211
                  ]
              },
              "properties": {
                  "Name":"臺東縣南迴公段-C"
              }
          },
          {
              "type": "Feature",
              "geometry": {
                  "type": "Point",
                  "coordinates": [
                  120.1277,
                  23.387
                  ]
              },
              "properties": {
                  "Name":"嘉義布袋"
              }
          },
          {
              "type": "Feature",
              "geometry": {
                  "type": "Point",
                  "coordinates": [
                   120.1277,
                   23.4431
                  ]
              },
              "properties": {
                  "Name":"嘉義布袋-A"
              }
          },
          {
              "type": "Feature",
              "geometry": {
                  "type": "Point",
                  "coordinates": [
                  120.1277,
                  23.4372
                  ]
              },
              "properties": {
                  "Name":"嘉義布袋-B"
              }
          },
          {
              "type": "Feature",
              "geometry": {
                  "type": "Point",
                  "coordinates": [
                    120.1277,
                    23.41
                  ]
              },
              "properties": {
                  "Name":"嘉義布袋-C"
              }
          },
          {
              "type": "Feature",
              "geometry": {
                  "type": "Point",
                  "coordinates": [
                    120.1277,
                    23.3827
                  ]
              },
              "properties": {
                  "Name":"嘉義布袋-D"
              }
          },
          {
              "type": "Feature",
              "geometry": {
                  "type": "Point",
                  "coordinates": [
                    120.1277,
                    23.3526
                  ]
              },
              "properties": {
                  "Name":"嘉義布袋-E"
              }
          },
          {
              "type": "Feature",
              "geometry": {
                  "type": "Point",
                  "coordinates": [
                  120.1989,
                  22.8382
                  ]
              },
              "properties": {
                  "Name":"高雄興達港"
              }
          },
          {
              "type": "Feature",
              "geometry": {
                  "type": "Point",
                  "coordinates": [
                   120.1808,
                   22.8878
                  ]
              },
              "properties": {
                  "Name":"高雄興達港-A"
              }
          },
          {
              "type": "Feature",
              "geometry": {
                  "type": "Point",
                  "coordinates": [
                   120.193,
                   22.8356
                  ]
              },
              "properties": {
                  "Name":"高雄興達港-B"
              }
          },
          {
              "type": "Feature",
              "geometry": {
                  "type": "Point",
                  "coordinates": [
                    120.2258,
                    22.7862
                  ]
              },
              "properties": {
                  "Name":"高雄興達港-C"
              }
          },
          {
              "type": "Feature",
              "geometry": {
                  "type": "Point",
                  "coordinates": [
                  121.6291,
                  23.9722
                  ]
              },
              "properties": {
                  "Name":"花蓮溪口"
              }
          },
          {
              "type": "Feature",
              "geometry": {
                  "type": "Point",
                  "coordinates": [
                   121.6426,
                   23.9848
                  ]
              },
              "properties": {
                  "Name":"花蓮溪口-A"
              }
          },
          {
              "type": "Feature",
              "geometry": {
                  "type": "Point",
                  "coordinates": [
                   121.617,
                   23.959
                  ]
              },
              "properties": {
                  "Name":"花蓮溪口-B"
              }
          },
          {
              "type": "Feature",
              "geometry": {
                  "type": "Point",
                  "coordinates": [
                  120.43286,
                  24.154437
                  ]
              },
              "properties": {
                  "Name":"台中港及彰濱"
              }
          },
          {
              "type": "Feature",
              "geometry": {
                  "type": "Point",
                  "coordinates": [
                120.146396,
                23.671912
                  ]
              },
              "properties": {
                  "Name":"濁水溪口"
              }
          },
          {
              "type": "Feature",
              "geometry": {
                  "type": "Point",
                  "coordinates": [
                121.0473,
                25.0169
                  ]
              },
              "properties": {
                  "Name":"桃園觀音、新屋"
              }
          },
          {
              "type": "Feature",
              "geometry": {
                  "type": "Point",
                  "coordinates": [
                    121.0803,
                    25.0515
                  ]
              },
              "properties": {
                  "Name":"桃園觀音、新屋-A"
              }
          },
          {
              "type": "Feature",
              "geometry": {
                  "type": "Point",
                  "coordinates": [
                    121.0466,
                    25.0373
                  ]
              },
              "properties": {
                  "Name":"桃園觀音、新屋-B"
              }
          },
          {
              "type": "Feature",
              "geometry": {
                  "type": "Point",
                  "coordinates": [
                    121.027,
                    25.0092
                  ]
              },
              "properties": {
                  "Name":"桃園觀音、新屋-C"
              }
          },
          {
              "type": "Feature",
              "geometry": {
                  "type": "Point",
                  "coordinates": [
                    121.0134,
                    24.9892
                  ]
              },
              "properties": {
                  "Name":"桃園觀音、新屋-D"
              }
          },
          {
              "type": "Feature",
              "geometry": {
                  "type": "Point",
                  "coordinates": [
                    121.0149,
                    24.98
                  ]
              },
              "properties": {
                  "Name":"桃園觀音、新屋-E"
              }
          },
          {
              "type": "Feature",
              "geometry": {
                  "type": "Point",
                  "coordinates": [
                120.0533,
                23.1444
                  ]
              },
              "properties": {
                  "Name":"台南七股"
              }
          },
          {
              "type": "Feature",
              "geometry": {
                  "type": "Point",
                  "coordinates": [
                    120.0819,
                    23.2256
                  ]
              },
              "properties": {
                  "Name":"台南七股-A"
              }
          },
          {
              "type": "Feature",
              "geometry": {
                  "type": "Point",
                  "coordinates": [
                    120.0762,
                    23.2117
                  ]
              },
              "properties": {
                  "Name":"台南七股-B"
              }
          },
          {
              "type": "Feature",
              "geometry": {
                  "type": "Point",
                  "coordinates": [
                    120.0775,
                    23.1964
                  ]
              },
              "properties": {
                  "Name":"台南七股-C"
              }
          },
          {
              "type": "Feature",
              "geometry": {
                  "type": "Point",
                  "coordinates": [
                    120.0757,
                    23.2117
                  ]
              },
              "properties": {
                  "Name":"台南七股-D"
              }
          },
          {
              "type": "Feature",
              "geometry": {
                  "type": "Point",
                  "coordinates": [
                    120.0583,
                    23.1151
                  ]
              },
              "properties": {
                  "Name":"台南七股-E"
              }
          },
          {
              "type": "Feature",
              "geometry": {
                  "type": "Point",
                  "coordinates": [
                120.3134,
                22.6202
                  ]
              },
              "properties": {
                  "Name":"高雄左營及旗津"
              }
          },
          {
              "type": "Feature",
              "geometry": {
                  "type": "Point",
                  "coordinates": [
                 120.2672,
                 22.6164
                  ]
              },
              "properties": {
                  "Name":"高雄左營及旗津-A"
              }
          },
          {
              "type": "Feature",
              "geometry": {
                  "type": "Point",
                  "coordinates": [
                 120.2972,
                 22.5657
                  ]
              },
              "properties": {
                  "Name":"高雄左營及旗津-B"
              }
          },
          {
              "type": "Feature",
              "geometry": {
                  "type": "Point",
                  "coordinates": [
                 120.3698,
                 22.5056
                  ]
              },
              "properties": {
                  "Name":"高雄左營及旗津-C"
              }
          }
]
}